[{"OBJECT_NAME":"ONEWEB-0217","OBJECT_ID":"2021-031AM","EPOCH":"2025-11-05T02:59:33.614304","MEAN_MOTION":13.14504613,"ECCENTRICITY":0.00021819,"INCLINATION":87.9014,"RA_OF_ASC_NODE":334.3235,"ARG_OF_PERICENTER":91.2027,"MEAN_ANOMALY":268.9353,"EPHEMERIS_TYPE":0,"CLASSIFICATION_TYPE":"U","NORAD_CAT_ID":48245,"ELEMENT_SET_NO":999,"REV_AT_EPOCH":21874,"BSTAR":0.00021566028,"MEAN_MOTION_DOT":9.3e-7,"MEAN_MOTION_DDOT":0},{"OBJECT_NAME":"ONEWEB-0211","OBJECT_ID":"2021-045A","EPOCH":"2025-11-02T19:08:23.245728","MEAN_MOTION":13.16234219,"ECCENTRICITY":0.00039479,"INCLINATION":87.8958,"RA_OF_ASC_NODE":304.3013,"ARG_OF_PERICENTER":100.1478,"MEAN_ANOMALY":260.0098,"EPHEMERIS_TYPE":0,"CLASSIFICATION_TYPE":"U","NORAD_CAT_ID":48767,"ELEMENT_SET_NO":999,"REV_AT_EPOCH":21466,"BSTAR":0.022105214,"MEAN_MOTION_DOT":8.427e-5,"MEAN_MOTION_DDOT":0},{"OBJECT_NAME":"ONEWEB-0223","OBJECT_ID":"2021-045B","EPOCH":"2025-11-05T06:43:54.104448","MEAN_MOTION":13.15550002,"ECCENTRICITY":0.00022701,"INCLINATION":87.8953,"RA_OF_ASC_NODE":303.8647,"ARG_OF_PERICENTER":98.5445,"MEAN_ANOMALY":261.5942,"EPHEMERIS_TYPE":0,"CLASSIFICATION_TYPE":"U","NORAD_CAT_ID":48768,"ELEMENT_SET_NO":999,"REV_AT_EPOCH":21496,"BSTAR":0.00068075481,"MEAN_MOTION_DOT":2.69e-6,"MEAN_MOTION_DDOT":0},{"OBJECT_NAME":"ONEWEB-0230","OBJECT_ID":"2021-045C","EPOCH":"2025-11-05T06:02:50.674560","MEAN_MOTION":13.15548788,"ECCENTRICITY":0.00016421,"INCLINATION":87.8941,"RA_OF_ASC_NODE":303.902,"ARG_OF_PERICENTER":91.8884,"MEAN_ANOMALY":268.2434,"EPHEMERIS_TYPE":0,"CLASSIFICATION_TYPE":"U","NORAD_CAT_ID":48769,"ELEMENT_SET_NO":999,"REV_AT_EPOCH":21522,"BSTAR":-0.00031185902,"MEAN_MOTION_DOT":-1.05e-6,"MEAN_MOTION_DDOT":0},{"OBJECT_NAME":"ONEWEB-0237","OBJECT_ID":"2021-045D","EPOCH":"2025-11-05T05:46:52.049280","MEAN_MOTION":13.1554991,"ECCENTRICITY":0.00019835,"INCLINATION":87.8954,"RA_OF_ASC_NODE":303.9031,"ARG_OF_PERICENTER":96.8425,"MEAN_ANOMALY":263.2931,"EPHEMERIS_TYPE":0,"CLASSIFICATION_TYPE":"U","NORAD_CAT_ID":48770,"ELEMENT_SET_NO":999,"REV_AT_EPOCH":21494,"BSTAR":-0.00036286589,"MEAN_MOTION_DOT":-1.24e-6,"MEAN_MOTION_DDOT":0},{"OBJECT_NAME":"ONEWEB-0235","OBJECT_ID":"2021-045E","EPOCH":"2025-11-05T06:59:52.635552","MEAN_MOTION":13.15550777,"ECCENTRICITY":0.00022109,"INCLINATION":87.8956,"RA_OF_ASC_NODE":303.8637,"ARG_OF_PERICENTER":99.5137,"MEAN_ANOMALY":260.6243,"EPHEMERIS_TYPE":0,"CLASSIFICATION_TYPE":"U","NORAD_CAT_ID":48771,"ELEMENT_SET_NO":999,"REV_AT_EPOCH":21494,"BSTAR":0.00079213433,"MEAN_MOTION_DOT":3.11e-6,"MEAN_MOTION_DDOT":0},{"OBJECT_NAME":"ONEWEB-0242","OBJECT_ID":"2021-045F","EPOCH":"2025-11-05T06:50:45.979296","MEAN_MOTION":13.15549656,"ECCENTRICITY":0.00018506,"INCLINATION":87.897,"RA_OF_ASC_NODE":303.8556,"ARG_OF_PERICENTER":95.679,"MEAN_ANOMALY":264.4551,"EPHEMERIS_TYPE":0,"CLASSIFICATION_TYPE":"U","NORAD_CAT_ID":48772,"ELEMENT_SET_NO":999,"REV_AT_EPOCH":21498,"BSTAR":0.0002994751,"MEAN_MOTION_DOT":1.26e-6,"MEAN_MOTION_DDOT":0},{"OBJECT_NAME":"ONEWEB-0241","OBJECT_ID":"2021-045G","EPOCH":"2025-11-05T06:32:30.770304","MEAN_MOTION":13.15549251,"ECCENTRICITY":0.00022872,"INCLINATION":87.8954,"RA_OF_ASC_NODE":303.8994,"ARG_OF_PERICENTER":92.0423,"MEAN_ANOMALY":268.0969,"EPHEMERIS_TYPE":0,"CLASSIFICATION_TYPE":"U","NORAD_CAT_ID":48773,"ELEMENT_SET_NO":999,"REV_AT_EPOCH":21489,"BSTAR":0.0002300957,"MEAN_MOTION_DOT":9.9e-7,"MEAN_MOTION_DDOT":0},{"OBJECT_NAME":"ONEWEB-0243","OBJECT_ID":"2021-045H","EPOCH":"2025-11-04T16:41:57.146784","MEAN_MOTION":13.15547154,"ECCENTRICITY":0.00020309,"INCLINATION":87.8965,"RA_OF_ASC_NODE":304.0221,"ARG_OF_PERICENTER":100.7554,"MEAN_ANOMALY":259.3805,"EPHEMERIS_TYPE":0,"CLASSIFICATION_TYPE":"U","NORAD_CAT_ID":48774,"ELEMENT_SET_NO":999,"REV_AT_EPOCH":21484,"BSTAR":7.834162e-5,"MEAN_MOTION_DOT":4.2e-7,"MEAN_MOTION_DDOT":0},{"OBJECT_NAME":"ONEWEB-0222","OBJECT_ID":"2021-045J","EPOCH":"2025-11-04T18:07:30.789408","MEAN_MOTION":13.15550142,"ECCENTRICITY":0.00020027,"INCLINATION":87.8963,"RA_OF_ASC_NODE":303.9618,"ARG_OF_PERICENTER":92.9949,"MEAN_ANOMALY":267.141,"EPHEMERIS_TYPE":0,"CLASSIFICATION_TYPE":"U","NORAD_CAT_ID":48775,"ELEMENT_SET_NO":999,"REV_AT_EPOCH":21489,"BSTAR":0.00023968375,"MEAN_MOTION_DOT":1.03e-6,"MEAN_MOTION_DDOT":0},{"OBJECT_NAME":"ONEWEB-0244","OBJECT_ID":"2021-045K","EPOCH":"2025-11-04T16:55:39.085536","MEAN_MOTION":13.15548759,"ECCENTRICITY":0.00019645,"INCLINATION":87.8967,"RA_OF_ASC_NODE":303.9577,"ARG_OF_PERICENTER":94.0977,"MEAN_ANOMALY":266.0378,"EPHEMERIS_TYPE":0,"CLASSIFICATION_TYPE":"U","NORAD_CAT_ID":48776,"ELEMENT_SET_NO":999,"REV_AT_EPOCH":21545,"BSTAR":-0.00031106319,"MEAN_MOTION_DOT":-1.04e-6,"MEAN_MOTION_DDOT":0},{"OBJECT_NAME":"ONEWEB-0247","OBJECT_ID":"2021-045L","EPOCH":"2025-11-04T22:19:38.726976","MEAN_MOTION":13.15550384,"ECCENTRICITY":0.00024626,"INCLINATION":87.8952,"RA_OF_ASC_NODE":303.975,"ARG_OF_PERICENTER":111.7299,"MEAN_ANOMALY":248.4094,"EPHEMERIS_TYPE":0,"CLASSIFICATION_TYPE":"U","NORAD_CAT_ID":48777,"ELEMENT_SET_NO":999,"REV_AT_EPOCH":21492,"BSTAR":-0.00017357765,"MEAN_MOTION_DOT":-5.3e-7,"MEAN_MOTION_DDOT":0},{"OBJECT_NAME":"ONEWEB-0245","OBJECT_ID":"2021-045M","EPOCH":"2025-11-05T00:02:18.714336","MEAN_MOTION":13.15550224,"ECCENTRICITY":0.00020569,"INCLINATION":87.8954,"RA_OF_ASC_NODE":303.9248,"ARG_OF_PERICENTER":88.2036,"MEAN_ANOMALY":271.933,"EPHEMERIS_TYPE":0,"CLASSIFICATION_TYPE":"U","NORAD_CAT_ID":48778,"ELEMENT_SET_NO":999,"REV_AT_EPOCH":21490,"BSTAR":-8.5624474e-5,"MEAN_MOTION_DOT":-1.9e-7,"MEAN_MOTION_DDOT":0},{"OBJECT_NAME":"ONEWEB-0229","OBJECT_ID":"2021-045N","EPOCH":"2025-11-04T11:08:48.965568","MEAN_MOTION":13.15549956,"ECCENTRICITY":0.00018138,"INCLINATION":87.8954,"RA_OF_ASC_NODE":304.0311,"ARG_OF_PERICENTER":94.8485,"MEAN_ANOMALY":265.2853,"EPHEMERIS_TYPE":0,"CLASSIFICATION_TYPE":"U","NORAD_CAT_ID":48779,"ELEMENT_SET_NO":999,"REV_AT_EPOCH":21486,"BSTAR":-0.00012642925,"MEAN_MOTION_DOT":-3.5e-7,"MEAN_MOTION_DDOT":0},{"OBJECT_NAME":"ONEWEB-0228","OBJECT_ID":"2021-045P","EPOCH":"2025-11-05T06:12:09.718848","MEAN_MOTION":13.15549851,"ECCENTRICITY":0.00019268,"INCLINATION":87.8963,"RA_OF_ASC_NODE":303.8528,"ARG_OF_PERICENTER":93.1725,"MEAN_ANOMALY":266.9626,"EPHEMERIS_TYPE":0,"CLASSIFICATION_TYPE":"U","NORAD_CAT_ID":48780,"ELEMENT_SET_NO":999,"REV_AT_EPOCH":21488,"BSTAR":-0.00029337516,"MEAN_MOTION_DOT":-9.8e-7,"MEAN_MOTION_DDOT":0},{"OBJECT_NAME":"ONEWEB-0232","OBJECT_ID":"2021-045Q","EPOCH":"2025-11-05T00:06:52.979904","MEAN_MOTION":13.15549675,"ECCENTRICITY":0.00018628,"INCLINATION":87.8964,"RA_OF_ASC_NODE":303.8943,"ARG_OF_PERICENTER":91.0349,"MEAN_ANOMALY":269.0995,"EPHEMERIS_TYPE":0,"CLASSIFICATION_TYPE":"U","NORAD_CAT_ID":48781,"ELEMENT_SET_NO":999,"REV_AT_EPOCH":21517,"BSTAR":-0.00010728016,"MEAN_MOTION_DOT":-2.8e-7,"MEAN_MOTION_DDOT":0}]
