ONEWEB-0217             
1 48245U 21031AM  25309.12469461  .00000093  00000+0  21566-3 0  9996
2 48245  87.9014 334.3235 0002181  91.2027 268.9353 13.14504613218746
ONEWEB-0211             
1 48767U 21045A   25306.79749127  .00008427  00000+0  22105-1 0  9997
2 48767  87.8958 304.3013 0003947 100.1478 260.0098 13.16234219214663
ONEWEB-0223             
1 48768U 21045B   25309.28048732  .00000269  00000+0  68075-3 0  9993
2 48768  87.8953 303.8647 0002270  98.5445 261.5942 13.15550002214965
ONEWEB-0230             
1 48769U 21045C   25309.25197540 -.00000105  00000+0 -31186-3 0  9997
2 48769  87.8941 303.9020 0001642  91.8884 268.2434 13.15548788215222
ONEWEB-0237             
1 48770U 21045D   25309.24088020 -.00000124  00000+0 -36287-3 0  9998
2 48770  87.8954 303.9031 0001983  96.8425 263.2931 13.15549910214947
ONEWEB-0235             
1 48771U 21045E   25309.29158143  .00000311  00000+0  79213-3 0  9990
2 48771  87.8956 303.8637 0002210  99.5137 260.6243 13.15550777214945
ONEWEB-0242             
1 48772U 21045F   25309.28525439  .00000126  00000+0  29948-3 0  9990
2 48772  87.8970 303.8556 0001850  95.6790 264.4551 13.15549656214985
ONEWEB-0241             
1 48773U 21045G   25309.27257836  .00000099  00000+0  23010-3 0  9996
2 48773  87.8954 303.8994 0002287  92.0423 268.0969 13.15549251214897
ONEWEB-0243             
1 48774U 21045H   25308.69580031  .00000042  00000+0  78342-4 0  9995
2 48774  87.8965 304.0221 0002030 100.7554 259.3805 13.15547154214841
ONEWEB-0222             
1 48775U 21045J   25308.75521747  .00000103  00000+0  23968-3 0  9993
2 48775  87.8963 303.9618 0002002  92.9949 267.1410 13.15550142214892
ONEWEB-0244             
1 48776U 21045K   25308.70531349 -.00000104  00000+0 -31106-3 0  9994
2 48776  87.8967 303.9577 0001964  94.0977 266.0378 13.15548759215456
ONEWEB-0247             
1 48777U 21045L   25308.93030934 -.00000053  00000+0 -17358-3 0  9990
2 48777  87.8952 303.9750 0002462 111.7299 248.4094 13.15550384214929
ONEWEB-0245             
1 48778U 21045M   25309.00160549 -.00000019  00000+0 -85624-4 0  9990
2 48778  87.8954 303.9248 0002056  88.2036 271.9330 13.15550224214905
ONEWEB-0229             
1 48779U 21045N   25308.46445562 -.00000035  00000+0 -12643-3 0  9999
2 48779  87.8954 304.0311 0001813  94.8485 265.2853 13.15549956214861
ONEWEB-0228             
1 48780U 21045P   25309.25844582 -.00000098  00000+0 -29338-3 0  9992
2 48780  87.8963 303.8528 0001926  93.1725 266.9626 13.15549851214886
ONEWEB-0232             
1 48781U 21045Q   25309.00477986 -.00000028  00000+0 -10728-3 0  9992
2 48781  87.8964 303.8943 0001862  91.0349 269.0995 13.15549675215177
